{
  "norad_id": 68611,
  "name": "STARLINK-37177",
  "history": [
    {
      "epoch": "2026-04-16T22:16:04.178496Z",
      "apogee_km": 328.935784203386,
      "perigee_km": 327.0374147348484,
      "latitude_deg": -4.421608739588381e-05,
      "longitude_deg": 125.46708969979046,
      "height_km": 331.30812069579696,
      "semi_major_axis_km": 6706.123599469117,
      "eccentricity": 0.00014154,
      "inclination_deg": 97.285,
      "raan_deg": 304.553,
      "arg_perigee_deg": 98.9568,
      "mean_anomaly_deg": 261.186,
      "mean_motion_rev_day": 15.80867356
    }
  ]
}