STARLINK-37177          
1 68611U 26073K   26106.92782614  .00186710  00000+0  95254-3 0  9994
2 68611  97.2850 304.5530 0001415  98.9568 261.1860 15.80867356  1577
